STARLINK-36552          
1 67503U 26012L   26042.91668981 -.01939279  00000+0 -35729-1 0  9992
2 67503  43.0004 100.3805 0001534 280.1957 135.9790 15.51451125  4925
STARLINK-36512          
1 67504U 26012M   26042.91668981  .00037665  00000+0  64568-3 0  9993
2 67504  43.0001 100.4997 0001500 301.3403  66.2552 15.50538771  4925
STARLINK-36545          
1 67505U 26012N   26042.91668981  .00043379  00000+0  74245-3 0  9996
2 67505  43.0002 100.4545 0001416 272.2772 113.6499 15.50529418  4922
STARLINK-36553          
1 67506U 26012P   26042.91668981 -.00637889  00000+0 -11629-1 0  9999
2 67506  43.0000 100.3530 0001185 266.3683 160.2461 15.50943236  4927
STARLINK-36521          
1 67507U 26012Q   26042.91668981 -.00552541  00000+0 -99768-2 0  9992
2 67507  43.0001 100.3432 0001233 273.3784 157.4247 15.50907447  4928
STARLINK-36526          
1 67508U 26012R   26042.91668981 -.00530071  00000+0 -95482-2 0  9996
2 67508  43.0001 100.3304 0001261 260.4679 175.5441 15.50893913  4927
STARLINK-36541          
1 67509U 26012S   26042.46580008  .00093399  00000+0  15773-2 0  9990
2 67509  43.0004 104.0423 0001009 305.3098  54.7667 15.50608724  3738
STARLINK-36549          
1 67510U 26012T   26042.91668981 -.00006718  00000+0 -10886-3 0  9991
2 67510  43.0002 100.2028 0001050 285.3683 198.5610 15.50564216  4878
STARLINK-36540          
1 67511U 26012U   26042.52856242  .00116578  00000+0  19565-2 0  9994
2 67511  43.0003 103.6536 0001045 358.3468   1.7389 15.50679618  3743
STARLINK-36538          
1 67512U 26012V   26042.91668981 -.01949152  00000+0 -41446-1 0  9996
2 67512  43.0003 100.5925 0001335 268.1150  60.9520 15.47446044  4926
STARLINK-36531          
1 67513U 26012W   26042.91668981 -.01933213  00000+0 -39062-1 0  9999
2 67513  43.0002 100.5156 0001555 271.1463  89.1778 15.48862962  4871
STARLINK-36530          
1 67514U 26012X   26042.91668981 -.01957986  00000+0 -38037-1 0  9994
2 67514  43.0005 100.5603 0001400 269.6709  71.8508 15.50009822  4876
