CCSDS_OMM_VERS = 2.0
CREATION_DATE  = 
ORIGINATOR     = 

OBJECT_NAME    = STARLINK-36552
OBJECT_ID      = 2026-012L
CENTER_NAME    = EARTH
REF_FRAME      = TEME
TIME_SYSTEM    = UTC
MEAN_ELEMENT_THEORY = SGP/SGP4

EPOCH          = 2026-02-11T22:00:01.999584
MEAN_MOTION    = 15.51451125
ECCENTRICITY   = .00015347
INCLINATION    = 43.0004
RA_OF_ASC_NODE = 100.3805
ARG_OF_PERICENTER = 280.1957
MEAN_ANOMALY   = 135.9790

EPHEMERIS_TYPE = 0
CLASSIFICATION_TYPE = U
NORAD_CAT_ID   = 67503
ELEMENT_SET_NO = 999
REV_AT_EPOCH   = 492
BSTAR          = -.35728941E-1
MEAN_MOTION_DOT = -.1939279E-1
MEAN_MOTION_DDOT = 0

CCSDS_OMM_VERS = 2.0
CREATION_DATE  = 
ORIGINATOR     = 

OBJECT_NAME    = STARLINK-36512
OBJECT_ID      = 2026-012M
CENTER_NAME    = EARTH
REF_FRAME      = TEME
TIME_SYSTEM    = UTC
MEAN_ELEMENT_THEORY = SGP/SGP4

EPOCH          = 2026-02-11T22:00:01.999584
MEAN_MOTION    = 15.50538771
ECCENTRICITY   = .00015001
INCLINATION    = 43.0001
RA_OF_ASC_NODE = 100.4997
ARG_OF_PERICENTER = 301.3403
MEAN_ANOMALY   = 66.2552

EPHEMERIS_TYPE = 0
CLASSIFICATION_TYPE = U
NORAD_CAT_ID   = 67504
ELEMENT_SET_NO = 999
REV_AT_EPOCH   = 492
BSTAR          = .64567807E-3
MEAN_MOTION_DOT = .37665E-3
MEAN_MOTION_DDOT = 0

CCSDS_OMM_VERS = 2.0
CREATION_DATE  = 
ORIGINATOR     = 

OBJECT_NAME    = STARLINK-36545
OBJECT_ID      = 2026-012N
CENTER_NAME    = EARTH
REF_FRAME      = TEME
TIME_SYSTEM    = UTC
MEAN_ELEMENT_THEORY = SGP/SGP4

EPOCH          = 2026-02-11T22:00:01.999584
MEAN_MOTION    = 15.50529418
ECCENTRICITY   = .00014169
INCLINATION    = 43.0002
RA_OF_ASC_NODE = 100.4545
ARG_OF_PERICENTER = 272.2772
MEAN_ANOMALY   = 113.6499

EPHEMERIS_TYPE = 0
CLASSIFICATION_TYPE = U
NORAD_CAT_ID   = 67505
ELEMENT_SET_NO = 999
REV_AT_EPOCH   = 492
BSTAR          = .74245348E-3
MEAN_MOTION_DOT = .43379E-3
MEAN_MOTION_DDOT = 0

CCSDS_OMM_VERS = 2.0
CREATION_DATE  = 
ORIGINATOR     = 

OBJECT_NAME    = STARLINK-36553
OBJECT_ID      = 2026-012P
CENTER_NAME    = EARTH
REF_FRAME      = TEME
TIME_SYSTEM    = UTC
MEAN_ELEMENT_THEORY = SGP/SGP4

EPOCH          = 2026-02-11T22:00:01.999584
MEAN_MOTION    = 15.50943236
ECCENTRICITY   = .00011855
INCLINATION    = 43.0000
RA_OF_ASC_NODE = 100.3530
ARG_OF_PERICENTER = 266.3683
MEAN_ANOMALY   = 160.2461

EPHEMERIS_TYPE = 0
CLASSIFICATION_TYPE = U
NORAD_CAT_ID   = 67506
ELEMENT_SET_NO = 999
REV_AT_EPOCH   = 492
BSTAR          = -.11629451E-1
MEAN_MOTION_DOT = -.637889E-2
MEAN_MOTION_DDOT = 0

CCSDS_OMM_VERS = 2.0
CREATION_DATE  = 
ORIGINATOR     = 

OBJECT_NAME    = STARLINK-36521
OBJECT_ID      = 2026-012Q
CENTER_NAME    = EARTH
REF_FRAME      = TEME
TIME_SYSTEM    = UTC
MEAN_ELEMENT_THEORY = SGP/SGP4

EPOCH          = 2026-02-11T22:00:01.999584
MEAN_MOTION    = 15.50907447
ECCENTRICITY   = .00012335
INCLINATION    = 43.0001
RA_OF_ASC_NODE = 100.3432
ARG_OF_PERICENTER = 273.3784
MEAN_ANOMALY   = 157.4247

EPHEMERIS_TYPE = 0
CLASSIFICATION_TYPE = U
NORAD_CAT_ID   = 67507
ELEMENT_SET_NO = 999
REV_AT_EPOCH   = 492
BSTAR          = -.99768046E-2
MEAN_MOTION_DOT = -.552541E-2
MEAN_MOTION_DDOT = 0

CCSDS_OMM_VERS = 2.0
CREATION_DATE  = 
ORIGINATOR     = 

OBJECT_NAME    = STARLINK-36526
OBJECT_ID      = 2026-012R
CENTER_NAME    = EARTH
REF_FRAME      = TEME
TIME_SYSTEM    = UTC
MEAN_ELEMENT_THEORY = SGP/SGP4

EPOCH          = 2026-02-11T22:00:01.999584
MEAN_MOTION    = 15.50893913
ECCENTRICITY   = .00012611
INCLINATION    = 43.0001
RA_OF_ASC_NODE = 100.3304
ARG_OF_PERICENTER = 260.4679
MEAN_ANOMALY   = 175.5441

EPHEMERIS_TYPE = 0
CLASSIFICATION_TYPE = U
NORAD_CAT_ID   = 67508
ELEMENT_SET_NO = 999
REV_AT_EPOCH   = 492
BSTAR          = -.95482429E-2
MEAN_MOTION_DOT = -.530071E-2
MEAN_MOTION_DDOT = 0

CCSDS_OMM_VERS = 2.0
CREATION_DATE  = 
ORIGINATOR     = 

OBJECT_NAME    = STARLINK-36541
OBJECT_ID      = 2026-012S
CENTER_NAME    = EARTH
REF_FRAME      = TEME
TIME_SYSTEM    = UTC
MEAN_ELEMENT_THEORY = SGP/SGP4

EPOCH          = 2026-02-11T11:10:45.126912
MEAN_MOTION    = 15.50608724
ECCENTRICITY   = .00010094
INCLINATION    = 43.0004
RA_OF_ASC_NODE = 104.0423
ARG_OF_PERICENTER = 305.3098
MEAN_ANOMALY   = 54.7667

EPHEMERIS_TYPE = 0
CLASSIFICATION_TYPE = U
NORAD_CAT_ID   = 67509
ELEMENT_SET_NO = 999
REV_AT_EPOCH   = 373
BSTAR          = .15772794E-2
MEAN_MOTION_DOT = .93399E-3
MEAN_MOTION_DDOT = 0

CCSDS_OMM_VERS = 2.0
CREATION_DATE  = 
ORIGINATOR     = 

OBJECT_NAME    = STARLINK-36549
OBJECT_ID      = 2026-012T
CENTER_NAME    = EARTH
REF_FRAME      = TEME
TIME_SYSTEM    = UTC
MEAN_ELEMENT_THEORY = SGP/SGP4

EPOCH          = 2026-02-11T22:00:01.999584
MEAN_MOTION    = 15.50564216
ECCENTRICITY   = .00010508
INCLINATION    = 43.0002
RA_OF_ASC_NODE = 100.2028
ARG_OF_PERICENTER = 285.3683
MEAN_ANOMALY   = 198.5610

EPHEMERIS_TYPE = 0
CLASSIFICATION_TYPE = U
NORAD_CAT_ID   = 67510
ELEMENT_SET_NO = 999
REV_AT_EPOCH   = 487
BSTAR          = -.10885974E-3
MEAN_MOTION_DOT = -.6718E-4
MEAN_MOTION_DDOT = 0

CCSDS_OMM_VERS = 2.0
CREATION_DATE  = 
ORIGINATOR     = 

OBJECT_NAME    = STARLINK-36540
OBJECT_ID      = 2026-012U
CENTER_NAME    = EARTH
REF_FRAME      = TEME
TIME_SYSTEM    = UTC
MEAN_ELEMENT_THEORY = SGP/SGP4

EPOCH          = 2026-02-11T12:41:07.793088
MEAN_MOTION    = 15.50679618
ECCENTRICITY   = .00010458
INCLINATION    = 43.0003
RA_OF_ASC_NODE = 103.6536
ARG_OF_PERICENTER = 358.3468
MEAN_ANOMALY   = 1.7389

EPHEMERIS_TYPE = 0
CLASSIFICATION_TYPE = U
NORAD_CAT_ID   = 67511
ELEMENT_SET_NO = 999
REV_AT_EPOCH   = 374
BSTAR          = .19565036E-2
MEAN_MOTION_DOT = .116578E-2
MEAN_MOTION_DDOT = 0

CCSDS_OMM_VERS = 2.0
CREATION_DATE  = 
ORIGINATOR     = 

OBJECT_NAME    = STARLINK-36538
OBJECT_ID      = 2026-012V
CENTER_NAME    = EARTH
REF_FRAME      = TEME
TIME_SYSTEM    = UTC
MEAN_ELEMENT_THEORY = SGP/SGP4

EPOCH          = 2026-02-11T22:00:01.999584
MEAN_MOTION    = 15.47446044
ECCENTRICITY   = .0001335
INCLINATION    = 43.0003
RA_OF_ASC_NODE = 100.5925
ARG_OF_PERICENTER = 268.1150
MEAN_ANOMALY   = 60.9520

EPHEMERIS_TYPE = 0
CLASSIFICATION_TYPE = U
NORAD_CAT_ID   = 67512
ELEMENT_SET_NO = 999
REV_AT_EPOCH   = 492
BSTAR          = -.41446396E-1
MEAN_MOTION_DOT = -.1949152E-1
MEAN_MOTION_DDOT = 0

CCSDS_OMM_VERS = 2.0
CREATION_DATE  = 
ORIGINATOR     = 

OBJECT_NAME    = STARLINK-36531
OBJECT_ID      = 2026-012W
CENTER_NAME    = EARTH
REF_FRAME      = TEME
TIME_SYSTEM    = UTC
MEAN_ELEMENT_THEORY = SGP/SGP4

EPOCH          = 2026-02-11T22:00:01.999584
MEAN_MOTION    = 15.48862962
ECCENTRICITY   = .00015557
INCLINATION    = 43.0002
RA_OF_ASC_NODE = 100.5156
ARG_OF_PERICENTER = 271.1463
MEAN_ANOMALY   = 89.1778

EPHEMERIS_TYPE = 0
CLASSIFICATION_TYPE = U
NORAD_CAT_ID   = 67513
ELEMENT_SET_NO = 999
REV_AT_EPOCH   = 487
BSTAR          = -.3906248E-1
MEAN_MOTION_DOT = -.1933213E-1
MEAN_MOTION_DDOT = 0

CCSDS_OMM_VERS = 2.0
CREATION_DATE  = 
ORIGINATOR     = 

OBJECT_NAME    = STARLINK-36530
OBJECT_ID      = 2026-012X
CENTER_NAME    = EARTH
REF_FRAME      = TEME
TIME_SYSTEM    = UTC
MEAN_ELEMENT_THEORY = SGP/SGP4

EPOCH          = 2026-02-11T22:00:01.999584
MEAN_MOTION    = 15.50009822
ECCENTRICITY   = .00014002
INCLINATION    = 43.0005
RA_OF_ASC_NODE = 100.5603
ARG_OF_PERICENTER = 269.6709
MEAN_ANOMALY   = 71.8508

EPHEMERIS_TYPE = 0
CLASSIFICATION_TYPE = U
NORAD_CAT_ID   = 67514
ELEMENT_SET_NO = 999
REV_AT_EPOCH   = 487
BSTAR          = -.38036668E-1
MEAN_MOTION_DOT = -.1957986E-1
MEAN_MOTION_DDOT = 0

